OBJECT_NAME,OBJECT_ID,EPOCH,MEAN_MOTION,ECCENTRICITY,INCLINATION,RA_OF_ASC_NODE,ARG_OF_PERICENTER,MEAN_ANOMALY,EPHEMERIS_TYPE,CLASSIFICATION_TYPE,NORAD_CAT_ID,ELEMENT_SET_NO,REV_AT_EPOCH,BSTAR,MEAN_MOTION_DOT,MEAN_MOTION_DDOT
STARLINK-6282,2023-061AK,2026-07-20T13:27:08.870976,15.27574925,.0001115,43.0015,156.8089,268.8165,91.2559,0,U,56407,999,17719,.64512E-5,-.85E-6,0
STARLINK-6289,2023-061AL,2026-07-20T22:00:14.805792,15.27594246,.00013802,43.0043,154.3128,277.5604,82.5091,0,U,56408,999,17725,.53379288E-4,.1208E-4,0
STARLINK-6241,2023-061AM,2026-07-20T07:19:47.291808,15.27563183,.00011091,43.0012,158.3344,269.4625,90.6099,0,U,56409,999,17715,.33513098E-4,.66E-5,0
STARLINK-6281,2023-061AN,2026-07-20T21:51:01.398240,15.27575242,.00008513,43.0008,154.2713,267.6140,92.4615,0,U,56410,999,17725,-.7018554E-5,-.455E-5,0
STARLINK-6279,2023-061AP,2026-07-20T05:51:10.240992,15.27575261,.00006306,43.0013,158.7296,226.7593,133.3206,0,U,56411,999,17714,-.1398197E-5,-.3E-5,0
STARLINK-6278,2023-061AQ,2026-07-20T04:55:39.317952,15.27576729,.00017061,43.0041,158.4460,283.2895,76.7767,0,U,56412,999,17714,.39142996E-4,.815E-5,0
STARLINK-6258,2023-061AR,2026-07-20T06:07:49.355040,15.27573394,.00011044,43.0018,158.8145,262.2724,97.8002,0,U,56413,999,17714,-.5885598E-5,-.424E-5,0
STARLINK-5136,2023-061AS,2026-07-20T05:27:06.725952,15.27577876,.00012128,43.0022,158.6003,264.9072,95.1641,0,U,56414,999,17714,.22825297E-4,.366E-5,0
STARLINK-6260,2023-061AU,2026-07-17T22:05:14.889408,15.27574183,.00010126,43.0014,164.3521,276.0691,84.0045,0,U,56416,999,17687,.10992597E-4,.4E-6,0
STARLINK-6261,2023-061AV,2026-07-20T22:22:28.894368,15.27573831,.00016409,43.0040,154.4384,266.8828,93.1836,0,U,56417,999,17725,.11489349E-4,.54E-6,0
STARLINK-5356,2023-061AW,2026-07-20T05:48:37.795104,15.27561817,.0001129,43.0032,150.8117,263.5466,96.5257,0,U,56418,999,17723,.33097163E-4,.648E-5,0
STARLINK-5350,2023-061AX,2026-07-20T05:32:39.623424,15.27576447,.00013668,43.0018,158.6319,264.7053,95.3643,0,U,56419,999,17714,.18134435E-4,.237E-5,0
STARLINK-6272,2023-061AY,2026-07-20T05:59:43.307520,15.27574586,.00016343,43.0045,150.8708,271.5106,88.5558,0,U,56420,999,17723,.111685E-6,-.259E-5,0
STARLINK-6270,2023-061AZ,2026-07-19T22:32:17.808864,15.27572073,.00017286,43.0047,156.2519,275.6129,84.4526,0,U,56421,999,17714,-.28293199E-4,-.1041E-4,0
STARLINK-6236,2023-061BA,2026-07-20T06:14:31.731072,15.27572412,.0001634,43.0031,150.9492,274.7870,85.2795,0,U,56422,999,17723,.694155E-6,-.243E-5,0
STARLINK-6239,2023-061BB,2026-07-20T13:56:03.026976,15.27579625,.0001453,43.0052,149.0561,269.8090,90.2595,0,U,56423,999,17728,.23598E-4,.387E-5,0
STARLINK-6242,2023-061BC,2026-07-20T06:25:37.621920,15.27577716,.00014225,43.0027,151.0073,270.1939,89.8749,0,U,56424,999,17723,.18504346E-4,.247E-5,0
STARLINK-6224,2023-061BD,2026-07-20T06:20:04.259616,15.27580187,.00014469,43.0026,150.9768,271.7511,88.3175,0,U,56425,999,17723,.32062093E-4,.62E-5,0
STARLINK-5352,2023-061BE,2026-07-20T05:08:07.187712,15.27576162,.00011937,43.0022,151.4476,267.7805,92.2910,0,U,56426,999,17722,.15671638E-4,.169E-5,0
STARLINK-5724,2023-061BF,2026-07-20T13:02:34.378080,15.27595202,.0001018,43.0017,149.6216,261.9047,98.1689,0,U,56427,999,17727,.69656E-4,.1656E-4,0
STARLINK-6238,2023-061BG,2026-07-20T06:31:10.515072,15.27578491,.0001283,43.0032,151.0313,269.3416,90.7289,0,U,56428,999,17723,.10876119E-4,.37E-6,0
STARLINK-6264,2023-061BH,2026-07-20T05:02:33.975744,15.27577264,.00013946,43.0019,151.4259,262.4914,97.5780,0,U,56429,999,17722,.19147817E-4,.265E-5,0
STARLINK-5990,2023-064A,2026-07-20T22:30:58.641408,14.98334612,.00034377,69.9999,168.5578,263.2920,96.7848,0,U,56448,999,17520,.44452033E-4,.437E-5,0
STARLINK-5993,2023-064B,2026-07-20T15:00:06.504192,14.98332739,.00030442,70.0000,169.4713,265.5601,94.5210,0,U,56449,999,17515,-.17918268E-4,-.307E-5,0
STARLINK-5970,2023-064C,2026-07-20T22:24:58.388832,14.98318511,.00030544,69.9999,168.5433,269.0825,90.9984,0,U,56450,999,17520,.49632641E-4,.499E-5,0
STARLINK-5985,2023-064D,2026-07-20T08:29:34.793088,14.98319341,.00030993,69.9999,170.1298,276.3707,83.7099,0,U,56451,999,17511,.49726403E-4,.5E-5,0
STARLINK-5986,2023-064E,2026-07-20T22:48:45.436032,14.98330968,.00032821,70.0000,168.6007,266.0657,94.0127,0,U,56452,999,17520,-.16935372E-4,-.295E-5,0
STARLINK-5935,2023-064F,2026-07-20T22:42:44.992512,14.98331170,.0003359,70.0000,168.5859,265.2269,94.8507,0,U,56453,999,17520,.10897596E-4,.37E-6,0
STARLINK-5959,2023-064G,2026-07-20T22:12:41.545440,14.98331839,.00031984,69.9997,168.5125,270.3515,89.7277,0,U,56454,999,17520,.25852156E-4,.215E-5,0
STARLINK-5987,2023-064H,2026-07-20T22:06:40.933440,14.98330265,.0003426,69.9998,168.4971,264.0989,95.9780,0,U,56455,999,17520,.37849577E-4,.359E-5,0
