STARLINK-6282           
1 56407U 23061AK  26201.56051934 -.00000085  00000+0  64512-5 0  9994
2 56407  43.0015 156.8089 0001115 268.8165  91.2559 15.27574925177191
STARLINK-6289           
1 56408U 23061AL  26201.91683803  .00001208  00000+0  53379-4 0  9995
2 56408  43.0043 154.3128 0001380 277.5604  82.5091 15.27594246177258
STARLINK-6241           
1 56409U 23061AM  26201.30540847  .00000660  00000+0  33513-4 0  9998
2 56409  43.0012 158.3344 0001109 269.4625  90.6099 15.27563183177154
STARLINK-6281           
1 56410U 23061AN  26201.91043285 -.00000455  00000+0 -70186-5 0  9993
2 56410  43.0008 154.2713 0000851 267.6140  92.4615 15.27575242177255
STARLINK-6279           
1 56411U 23061AP  26201.24386853 -.00000300  00000+0 -13982-5 0  9991
2 56411  43.0013 158.7296 0000630 226.7593 133.3206 15.27575261177140
STARLINK-6278           
1 56412U 23061AQ  26201.20531618  .00000815  00000+0  39143-4 0  9994
2 56412  43.0041 158.4460 0001706 283.2895  76.7767 15.27576729177142
STARLINK-6258           
1 56413U 23061AR  26201.25543235 -.00000424  00000+0 -58856-5 0  9999
2 56413  43.0018 158.8145 0001104 262.2724  97.8002 15.27573394177142
STARLINK-5136           
1 56414U 23061AS  26201.22716118  .00000366  00000+0  22825-4 0  9998
2 56414  43.0022 158.6003 0001212 264.9072  95.1641 15.27577876177143
STARLINK-6260           
1 56416U 23061AU  26198.92031122  .00000040  00000+0  10993-4 0  9999
2 56416  43.0014 164.3521 0001012 276.0691  84.0045 15.27574183176876
STARLINK-6261           
1 56417U 23061AV  26201.93227887  .00000054  00000+0  11489-4 0  9997
2 56417  43.0040 154.4384 0001640 266.8828  93.1836 15.27573831177250
STARLINK-5356           
1 56418U 23061AW  26201.24210411  .00000648  00000+0  33097-4 0  9995
2 56418  43.0032 150.8117 0001129 263.5466  96.5257 15.27561817177233
STARLINK-5350           
1 56419U 23061AX  26201.23101416  .00000237  00000+0  18134-4 0  9998
2 56419  43.0018 158.6319 0001366 264.7053  95.3643 15.27576447177147
STARLINK-6272           
1 56420U 23061AY  26201.24980680 -.00000259  00000+0  11168-6 0  9996
2 56420  43.0045 150.8708 0001634 271.5106  88.5558 15.27574586177239
STARLINK-6270           
1 56421U 23061AZ  26200.93909501 -.00001041  00000+0 -28293-4 0  9991
2 56421  43.0047 156.2519 0001728 275.6129  84.4526 15.27572073177145
STARLINK-6236           
1 56422U 23061BA  26201.26008948 -.00000243  00000+0  69415-6 0  9999
2 56422  43.0031 150.9492 0001634 274.7870  85.2795 15.27572412177233
STARLINK-6239           
1 56423U 23061BB  26201.58059059  .00000387  00000+0  23598-4 0  9992
2 56423  43.0052 149.0561 0001453 269.8090  90.2595 15.27579625177283
STARLINK-6242           
1 56424U 23061BC  26201.26779655  .00000247  00000+0  18504-4 0  9995
2 56424  43.0027 151.0073 0001422 270.1939  89.8749 15.27577716177239
STARLINK-6224           
1 56425U 23061BD  26201.26393819  .00000620  00000+0  32062-4 0  9990
2 56425  43.0026 150.9768 0001446 271.7511  88.3175 15.27580187177230
STARLINK-5352           
1 56426U 23061BE  26201.21397208  .00000169  00000+0  15672-4 0  9998
2 56426  43.0022 151.4476 0001193 267.7805  92.2910 15.27576162177227
STARLINK-5724           
1 56427U 23061BF  26201.54345345  .00001656  00000+0  69656-4 0  9993
2 56427  43.0017 149.6216 0001018 261.9047  98.1689 15.27595202177272
STARLINK-6238           
1 56428U 23061BG  26201.27164948  .00000037  00000+0  10876-4 0  9994
2 56428  43.0032 151.0313 0001283 269.3416  90.7289 15.27578491177232
STARLINK-6264           
1 56429U 23061BH  26201.21011546  .00000265  00000+0  19148-4 0  9998
2 56429  43.0019 151.4259 0001394 262.4914  97.5780 15.27577264177228
STARLINK-5990           
1 56448U 23064A   26201.93817872  .00000437  00000+0  44452-4 0  9994
2 56448  69.9999 168.5578 0003437 263.2920  96.7848 14.98334612175209
STARLINK-5993           
1 56449U 23064B   26201.62507528 -.00000307  00000+0 -17918-4 0  9990
2 56449  70.0000 169.4713 0003044 265.5601  94.5210 14.98332739175153
STARLINK-5970           
1 56450U 23064C   26201.93400913  .00000499  00000+0  49633-4 0  9995
2 56450  69.9999 168.5433 0003054 269.0825  90.9984 14.98318511175202
STARLINK-5985           
1 56451U 23064D   26201.35387492  .00000500  00000+0  49726-4 0  9994
2 56451  69.9999 170.1298 0003099 276.3707  83.7099 14.98319341175119
STARLINK-5986           
1 56452U 23064E   26201.95052588 -.00000295  00000+0 -16935-4 0  9995
2 56452  70.0000 168.6007 0003282 266.0657  94.0127 14.98330968175205
STARLINK-5935           
1 56453U 23064F   26201.94635408  .00000037  00000+0  10898-4 0  9997
2 56453  70.0000 168.5859 0003359 265.2269  94.8507 14.98331170175201
STARLINK-5959           
1 56454U 23064G   26201.92548085  .00000215  00000+0  25852-4 0  9994
2 56454  69.9997 168.5125 0003198 270.3515  89.7277 14.98331839175201
STARLINK-5987           
1 56455U 23064H   26201.92130710  .00000359  00000+0  37850-4 0  9997
2 56455  69.9998 168.4971 0003426 264.0989  95.9780 14.98330265175200
